start=new Date('2021-12-08T00:00:00.000Z').valueOf();
sats=[{"GP_ID":"191297821","ELEMENT_SET_NO":"999","ECCENTRICITY":"0.00022350","TLE_LINE1":"1 45562U 20025AH  21341.61416363  .00000858  00000-0  76486-4 0  9998","SEMIMAJOR_AXIS":"6925.356","NORAD_CAT_ID":"45562","OBJECT_TYPE":"PAYLOAD","INCLINATION":"53.0536","MEAN_MOTION":"15.06397450","ARG_OF_PERICENTER":"78.7011","BSTAR":"0.00007648600000","PERIAPSIS":"545.674","MEAN_MOTION_DOT":"0.00000858","PERIOD":"95.592","CLASSIFICATION_TYPE":"U","MEAN_ANOMALY":"281.4229","OBJECT_ID":"2020-025AH","OBJECT_NAME":"STARLINK-1354","EPOCH":"2021-12-07T14:44:23.737632","REV_AT_EPOCH":"9128","TIME_SYSTEM":"UTC","RA_OF_ASC_NODE":"218.6475","RCS_SIZE":"LARGE","DECAY_DATE":null,"SITE":"AFETR","COUNTRY_CODE":"US","REF_FRAME":"TEME","MEAN_ELEMENT_THEORY":"SGP4","APOAPSIS":"548.769","TLE_LINE2":"2 45562  53.0536 218.6475 0002235  78.7011 281.4229 15.06397450 91283","CENTER_NAME":"EARTH","FILE":"3235143","LAUNCH_DATE":"2020-04-22","EPHEMERIS_TYPE":"0","MEAN_MOTION_DDOT":"0.0000000000000"},{"MEAN_ELEMENT_THEORY":"SGP4","REF_FRAME":"TEME","COUNTRY_CODE":"US","SITE":"AFETR","DECAY_DATE":null,"RCS_SIZE":"LARGE","RA_OF_ASC_NODE":"218.5883","REV_AT_EPOCH":"9128","TIME_SYSTEM":"UTC","EPOCH":"2021-12-07T15:05:37.087872","OBJECT_NAME":"STARLINK-1355","OBJECT_ID":"2020-025AJ","MEAN_ANOMALY":"284.4973","MEAN_MOTION_DDOT":"0.0000000000000","EPHEMERIS_TYPE":"0","LAUNCH_DATE":"2020-04-22","FILE":"3235143","CENTER_NAME":"EARTH","TLE_LINE2":"2 45563  53.0549 218.5883 0002228  75.6263 284.4973 15.06401971 91280","APOAPSIS":"548.750","OBJECT_TYPE":"PAYLOAD","NORAD_CAT_ID":"45563","SEMIMAJOR_AXIS":"6925.343","TLE_LINE1":"1 45563U 20025AJ  21341.62890148  .00001107  00000-0  93207-4 0  9995","ECCENTRICITY":"0.00022280","ELEMENT_SET_NO":"999","GP_ID":"191296569","CLASSIFICATION_TYPE":"U","PERIOD":"95.592","MEAN_MOTION_DOT":"0.00001107","PERIAPSIS":"545.665","BSTAR":"0.00009320700000","ARG_OF_PERICENTER":"75.6263","MEAN_MOTION":"15.06401971","INCLINATION":"53.0549"},{"LAUNCH_DATE":"2020-04-22","CENTER_NAME":"EARTH","TLE_LINE2":"2 45564  53.0531 217.4003 0002130  72.2546 287.8675 15.06399736 91329","APOAPSIS":"548.689","FILE":"3235143","EPHEMERIS_TYPE":"0","MEAN_MOTION_DDOT":"0.0000000000000","EPOCH":"2021-12-07T21:22:28.191648","RA_OF_ASC_NODE":"217.4003","TIME_SYSTEM":"UTC","REV_AT_EPOCH":"9132","OBJECT_ID":"2020-025AK","MEAN_ANOMALY":"287.8675","OBJECT_NAME":"STARLINK-1356","COUNTRY_CODE":"US","MEAN_ELEMENT_THEORY":"SGP4","REF_FRAME":"TEME","DECAY_DATE":null,"RCS_SIZE":"LARGE","SITE":"AFETR","ARG_OF_PERICENTER":"72.2546","BSTAR":"0.00008836000000","INCLINATION":"53.0531","MEAN_MOTION":"15.06399736","PERIOD":"95.592","CLASSIFICATION_TYPE":"U","MEAN_MOTION_DOT":"0.00001035","PERIAPSIS":"545.739","SEMIMAJOR_AXIS":"6925.349","TLE_LINE1":"1 45564U 20025AK  21341.89060407  .00001035  00000-0  88360-4 0  9996","ECCENTRICITY":"0.00021300","NORAD_CAT_ID":"45564","ELEMENT_SET_NO":"999","GP_ID":"191297320","OBJECT_TYPE":"PAYLOAD"},{"ARG_OF_PERICENTER":"71.7942","BSTAR":"-0.00001378600000","INCLINATION":"53.0543","MEAN_MOTION":"15.06391278","MEAN_MOTION_DOT":"-0.00000487","CLASSIFICATION_TYPE":"U","PERIOD":"95.593","PERIAPSIS":"545.859","TLE_LINE1":"1 45565U 20025AL  21341.08707199 -.00000487  00000-0 -13786-4 0  9996","ECCENTRICITY":"0.00019950","SEMIMAJOR_AXIS":"6925.375","NORAD_CAT_ID":"45565","GP_ID":"191269105","ELEMENT_SET_NO":"999","OBJECT_TYPE":"PAYLOAD","LAUNCH_DATE":"2020-04-22","TLE_LINE2":"2 45565  53.0543 221.0162 0001995  71.7942 288.3264 15.06391278 91202","APOAPSIS":"548.622","CENTER_NAME":"EARTH","FILE":"3234816","EPHEMERIS_TYPE":"0","MEAN_MOTION_DDOT":"0.0000000000000","EPOCH":"2021-12-07T02:05:23.019936","REV_AT_EPOCH":"9120","TIME_SYSTEM":"UTC","RA_OF_ASC_NODE":"221.0162","MEAN_ANOMALY":"288.3264","OBJECT_ID":"2020-025AL","OBJECT_NAME":"STARLINK-1357","COUNTRY_CODE":"US","REF_FRAME":"TEME","MEAN_ELEMENT_THEORY":"SGP4","RCS_SIZE":"LARGE","DECAY_DATE":null,"SITE":"AFETR"},{"TIME_SYSTEM":"UTC","REV_AT_EPOCH":"9131","RA_OF_ASC_NODE":"217.6791","EPOCH":"2021-12-07T19:57:33.331392","OBJECT_NAME":"STARLINK-1358","MEAN_ANOMALY":"288.2973","OBJECT_ID":"2020-025AM","REF_FRAME":"TEME","MEAN_ELEMENT_THEORY":"SGP4","COUNTRY_CODE":"US","SITE":"AFETR","RCS_SIZE":"LARGE","DECAY_DATE":null,"LAUNCH_DATE":"2020-04-22","FILE":"3235143","TLE_LINE2":"2 45566  53.0541 217.6791 0002054  71.8239 288.2973 15.06395176 91316","APOAPSIS":"548.651","CENTER_NAME":"EARTH","MEAN_MOTION_DDOT":"0.0000000000000","EPHEMERIS_TYPE":"0","NORAD_CAT_ID":"45566","TLE_LINE1":"1 45566U 20025AM  21341.83163578  .00000034  00000-0  21230-4 0  9996","ECCENTRICITY":"0.00020540","SEMIMAJOR_AXIS":"6925.363","GP_ID":"191298322","ELEMENT_SET_NO":"999","OBJECT_TYPE":"PAYLOAD","BSTAR":"0.00002123000000","ARG_OF_PERICENTER":"71.8239","MEAN_MOTION":"15.06395176","INCLINATION":"53.0541","MEAN_MOTION_DOT":"0.00000034","PERIOD":"95.592","CLASSIFICATION_TYPE":"U","PERIAPSIS":"545.806"},{"INCLINATION":"53.0535","MEAN_MOTION":"15.06393339","ARG_OF_PERICENTER":"74.8231","BSTAR":"0.00009495400000","PERIAPSIS":"545.692","CLASSIFICATION_TYPE":"U","PERIOD":"95.593","MEAN_MOTION_DOT":"0.00001133","ELEMENT_SET_NO":"999","GP_ID":"191297070","SEMIMAJOR_AXIS":"6925.369","ECCENTRICITY":"0.00022270","TLE_LINE1":"1 45567U 20025AN  21341.77635334  .00001133  00000-0  94954-4 0  9998","NORAD_CAT_ID":"45567","OBJECT_TYPE":"PAYLOAD","CENTER_NAME":"EARTH","TLE_LINE2":"2 45567  53.0535 217.9176 0002227  74.8231 285.3004 15.06393339 91319","APOAPSIS":"548.776","FILE":"3235143","LAUNCH_DATE":"2020-04-22","EPHEMERIS_TYPE":"0","MEAN_MOTION_DDOT":"0.0000000000000","OBJECT_ID":"2020-025AN","MEAN_ANOMALY":"285.3004","OBJECT_NAME":"STARLINK-1361","EPOCH":"2021-12-07T18:37:56.928576","RA_OF_ASC_NODE":"217.9176","REV_AT_EPOCH":"9131","TIME_SYSTEM":"UTC","RCS_SIZE":"LARGE","DECAY_DATE":null,"SITE":"AFETR","COUNTRY_CODE":"US","MEAN_ELEMENT_THEORY":"SGP4","REF_FRAME":"TEME"},{"FILE":"3235143","CENTER_NAME":"EARTH","TLE_LINE2":"2 45568  53.0546 218.2589 0002192  80.1376 279.9860 15.06394894 91298","APOAPSIS":"548.747","LAUNCH_DATE":"2020-04-22","MEAN_MOTION_DDOT":"0.0000000000000","EPHEMERIS_TYPE":"0","OBJECT_NAME":"STARLINK-1363","OBJECT_ID":"2020-025AP","MEAN_ANOMALY":"279.9860","RA_OF_ASC_NODE":"218.2589","TIME_SYSTEM":"UTC","REV_AT_EPOCH":"9129","EPOCH":"2021-12-07T16:50:24.754560","SITE":"AFETR","RCS_SIZE":"LARGE","DECAY_DATE":null,"MEAN_ELEMENT_THEORY":"SGP4","REF_FRAME":"TEME","COUNTRY_CODE":"US","MEAN_MOTION":"15.06394894","INCLINATION":"53.0546","BSTAR":"0.00003453900000","ARG_OF_PERICENTER":"80.1376","PERIAPSIS":"545.711","CLASSIFICATION_TYPE":"U","PERIOD":"95.592","MEAN_MOTION_DOT":"0.00000233","ELEMENT_SET_NO":"999","GP_ID":"191296820","NORAD_CAT_ID":"45568","SEMIMAJOR_AXIS":"6925.364","TLE_LINE1":"1 45568U 20025AP  21341.70167540  .00000233  00000-0  34539-4 0  9994","ECCENTRICITY":"0.00021920","OBJECT_TYPE":"PAYLOAD"},{"ELEMENT_SET_NO":"999","GP_ID":"191275338","SEMIMAJOR_AXIS":"6925.374","ECCENTRICITY":"0.00021560","TLE_LINE1":"1 45569U 20025AQ  21341.71368207  .00001101  00000-0  92836-4 0  9998","NORAD_CAT_ID":"45569","OBJECT_TYPE":"PAYLOAD","INCLINATION":"53.0539","MEAN_MOTION":"15.06391771","ARG_OF_PERICENTER":"70.4603","BSTAR":"0.00009283600000","PERIAPSIS":"545.746","CLASSIFICATION_TYPE":"U","PERIOD":"95.593","MEAN_MOTION_DOT":"0.00001101","OBJECT_ID":"2020-025AQ","MEAN_ANOMALY":"289.6619","OBJECT_NAME":"STARLINK-1366","EPOCH":"2021-12-07T17:07:42.130848","RA_OF_ASC_NODE":"218.2018","TIME_SYSTEM":"UTC","REV_AT_EPOCH":"9069","DECAY_DATE":null,"RCS_SIZE":"LARGE","SITE":"AFETR","COUNTRY_CODE":"US","MEAN_ELEMENT_THEORY":"SGP4","REF_FRAME":"TEME","CENTER_NAME":"EARTH","TLE_LINE2":"2 45569  53.0539 218.2018 0002156  70.4603 289.6619 15.06391771 90697","APOAPSIS":"548.732","FILE":"3234938","LAUNCH_DATE":"2020-04-22","EPHEMERIS_TYPE":"0","MEAN_MOTION_DDOT":"0.0000000000000"},{"DECAY_DATE":null,"RCS_SIZE":"LARGE","SITE":"AFETR","COUNTRY_CODE":"US","MEAN_ELEMENT_THEORY":"SGP4","REF_FRAME":"TEME","OBJECT_ID":"2020-025AR","MEAN_ANOMALY":"293.1971","OBJECT_NAME":"STARLINK-1376","EPOCH":"2021-12-07T18:32:37.982976","RA_OF_ASC_NODE":"217.9356","TIME_SYSTEM":"UTC","REV_AT_EPOCH":"9130","EPHEMERIS_TYPE":"0","MEAN_MOTION_DDOT":"0.0000000000000","CENTER_NAME":"EARTH","APOAPSIS":"548.752","TLE_LINE2":"2 45570  53.0533 217.9356 0002186  66.9248 293.1971 15.06391886 91309","FILE":"3235143","LAUNCH_DATE":"2020-04-22","OBJECT_TYPE":"PAYLOAD","ELEMENT_SET_NO":"999","GP_ID":"191297822","SEMIMAJOR_AXIS":"6925.373","ECCENTRICITY":"0.00021860","TLE_LINE1":"1 45570U 20025AR  21341.77266184 -.00001211  00000-0 -62389-4 0  9991","NORAD_CAT_ID":"45570","PERIAPSIS":"545.725","CLASSIFICATION_TYPE":"U","PERIOD":"95.593","MEAN_MOTION_DOT":"-0.00001211","INCLINATION":"53.0533","MEAN_MOTION":"15.06391886","ARG_OF_PERICENTER":"66.9248","BSTAR":"-0.00006238900000"},{"PERIAPSIS":"545.779","PERIOD":"95.592","CLASSIFICATION_TYPE":"U","MEAN_MOTION_DOT":"0.00000858","MEAN_MOTION":"15.06399730","INCLINATION":"53.0541","BSTAR":"0.00007648100000","ARG_OF_PERICENTER":"74.7102","OBJECT_TYPE":"PAYLOAD","ELEMENT_SET_NO":"999","GP_ID":"191296570","NORAD_CAT_ID":"45571","SEMIMAJOR_AXIS":"6925.349","ECCENTRICITY":"0.00020720","TLE_LINE1":"1 45571U 20025AS  21341.58928128  .00000858  00000-0  76481-4 0  9996","MEAN_MOTION_DDOT":"0.0000000000000","EPHEMERIS_TYPE":"0","FILE":"3235143","CENTER_NAME":"EARTH","TLE_LINE2":"2 45571  53.0541 208.7691 0002072  74.7102 285.4115 15.06399730 91433","APOAPSIS":"548.649","LAUNCH_DATE":"2020-04-22","SITE":"AFETR","RCS_SIZE":"LARGE","DECAY_DATE":null,"MEAN_ELEMENT_THEORY":"SGP4","REF_FRAME":"TEME","COUNTRY_CODE":"US","OBJECT_NAME":"STARLINK-1261","OBJECT_ID":"2020-025AS","MEAN_ANOMALY":"285.4115","RA_OF_ASC_NODE":"208.7691","TIME_SYSTEM":"UTC","REV_AT_EPOCH":"9143","EPOCH":"2021-12-07T14:08:33.902592"}];
